{
  "norad_id": 68422,
  "name": "BRO-19",
  "history": [
    {
      "epoch": "2026-05-07T20:33:30.583008Z",
      "apogee_km": 512.0183858038044,
      "perigee_km": 508.5493770479179,
      "latitude_deg": -1.073169815257199e-05,
      "longitude_deg": -87.16170694284979,
      "height_km": 512.8254683467628,
      "semi_major_axis_km": 6888.420881425861,
      "eccentricity": 0.0002518,
      "inclination_deg": 97.4457,
      "raan_deg": 86.9126,
      "arg_perigee_deg": 71.8069,
      "mean_anomaly_deg": 288.3439,
      "mean_motion_rev_day": 15.18529559
    },
    {
      "epoch": "2026-05-08T20:16:50.617056Z",
      "apogee_km": 511.99009022990685,
      "perigee_km": 508.5500197466463,
      "latitude_deg": -3.8550789190763705e-05,
      "longitude_deg": -82.99611884172214,
      "height_km": 512.7907089874952,
      "semi_major_axis_km": 6888.407054988276,
      "eccentricity": 0.0002497,
      "inclination_deg": 97.4457,
      "raan_deg": 87.8859,
      "arg_perigee_deg": 70.9099,
      "mean_anomaly_deg": 289.2405,
      "mean_motion_rev_day": 15.18534131
    },
    {
      "epoch": "2026-05-09T20:00:10.454976Z",
      "apogee_km": 511.9510052158248,
      "perigee_km": 508.57017967745196,
      "latitude_deg": 7.157084025822764e-05,
      "longitude_deg": -78.82962843102968,
      "height_km": 512.7665315077816,
      "semi_major_axis_km": 6888.397592446638,
      "eccentricity": 0.0002454,
      "inclination_deg": 97.4457,
      "raan_deg": 88.8593,
      "arg_perigee_deg": 70.0294,
      "mean_anomaly_deg": 290.1205,
      "mean_motion_rev_day": 15.1853726
    },
    {
      "epoch": "2026-05-10T19:43:30.044064Z",
      "apogee_km": 511.8935974742635,
      "perigee_km": 508.60508183571255,
      "latitude_deg": -1.5152341836678411e-05,
      "longitude_deg": -74.66217188017957,
      "height_km": 512.7405017347786,
      "semi_major_axis_km": 6888.386339654988,
      "eccentricity": 0.0002387,
      "inclination_deg": 97.4456,
      "raan_deg": 89.8326,
      "arg_perigee_deg": 68.8869,
      "mean_anomaly_deg": 291.262,
      "mean_motion_rev_day": 15.18540981
    },
    {
      "epoch": "2026-05-11T19:26:49.449984Z",
      "apogee_km": 511.8597588865132,
      "perigee_km": 508.622221231185,
      "latitude_deg": 9.143128974765916e-05,
      "longitude_deg": -70.49367427813337,
      "height_km": 512.6812378524402,
      "semi_major_axis_km": 6888.377990058849,
      "eccentricity": 0.000235,
      "inclination_deg": 97.4461,
      "raan_deg": 90.8062,
      "arg_perigee_deg": 66.585,
      "mean_anomaly_deg": 293.5632,
      "mean_motion_rev_day": 15.18543742
    },
    {
      "epoch": "2026-05-12T20:45:01.941120Z",
      "apogee_km": 511.8400271384726,
      "perigee_km": 508.61627224841595,
      "latitude_deg": -4.6166191872978746e-05,
      "longitude_deg": -90.04637894960145,
      "height_km": 512.6633219432821,
      "semi_major_axis_km": 6888.3651496934435,
      "eccentricity": 0.000234,
      "inclination_deg": 97.4463,
      "raan_deg": 91.8447,
      "arg_perigee_deg": 66.2802,
      "mean_anomaly_deg": 293.8677,
      "mean_motion_rev_day": 15.18547988
    },
    {
      "epoch": "2026-05-13T09:24:08.039808Z",
      "apogee_km": 511.8304976181689,
      "perigee_km": 508.6095018850856,
      "latitude_deg": 2.5979639395089825e-05,
      "longitude_deg": 80.17761418621916,
      "height_km": 512.622507281133,
      "semi_major_axis_km": 6888.356999751627,
      "eccentricity": 0.0002338,
      "inclination_deg": 97.4465,
      "raan_deg": 92.3637,
      "arg_perigee_deg": 64.9819,
      "mean_anomaly_deg": 295.1658,
      "mean_motion_rev_day": 15.18550683
    },
    {
      "epoch": "2026-05-13T09:24:08.040672Z",
      "apogee_km": 511.83056650173876,
      "perigee_km": 508.60943300151575,
      "latitude_deg": 2.494404277902725e-05,
      "longitude_deg": 80.17761071097236,
      "height_km": 512.6224781435945,
      "semi_major_axis_km": 6888.356999751627,
      "eccentricity": 0.00023381,
      "inclination_deg": 97.4465,
      "raan_deg": 92.3637,
      "arg_perigee_deg": 64.9819,
      "mean_anomaly_deg": 295.1658,
      "mean_motion_rev_day": 15.18550683
    },
    {
      "epoch": "2026-05-14T09:07:26.895360Z",
      "apogee_km": 511.7900116013816,
      "perigee_km": 508.6244041372129,
      "latitude_deg": -2.4147185025930417e-05,
      "longitude_deg": 84.34803238485775,
      "height_km": 512.592417027988,
      "semi_major_axis_km": 6888.344207869297,
      "eccentricity": 0.00022978,
      "inclination_deg": 97.4466,
      "raan_deg": 93.3369,
      "arg_perigee_deg": 63.8131,
      "mean_anomaly_deg": 296.3339,
      "mean_motion_rev_day": 15.18554913
    }
  ]
}